CTC2_L_00096001-01
1 10000U 22183QP  26075.70041667  .00000000  00000+0  00000-0 0  9997
2 10000 100.0000   0.0000 0000000   0.0000   0.0000 15.18623435    13
CTC2_L_00096001-02
1 10001U 26362QG  26075.70041667  .00000000  00000+0  00000-0 0  9991
2 10001 100.0000   0.0000 0000000   0.0000  90.0000 15.18623435    13
CTC2_L_00096001-03
1 10002U 26798OG  26075.70041667  .00000000  00000+0  00000-0 0  9995
2 10002 100.0000   0.0000 0000000   0.0000 180.0000 15.18623435    14
CTC2_L_00096001-04
1 10003U 23505MC  26075.70041667  .00000000  00000+0  00000-0 0  9999
2 10003 100.0000   0.0000 0000000   0.0000 270.0000 15.18623435    15
CTC2_L_00096002-01
1 10004U 25743CD  26075.70041667  .00000000  00000+0  00000-0 0  9996
2 10004 100.0000  12.0000 0000000   0.0000  12.0000 15.18623435    13
CTC2_L_00096002-02
1 10005U 25245CY  26075.70041667  .00000000  00000+0  00000-0 0  9994
2 10005 100.0000  12.0000 0000000   0.0000 102.0000 15.18623435    14
CTC2_L_00096002-03
1 10006U 26396RN  26075.70041667  .00000000  00000+0  00000-0 0  9993
2 10006 100.0000  12.0000 0000000   0.0000 192.0000 15.18623435    14
CTC2_L_00096002-04
1 10007U 23398VU  26075.70041667  .00000000  00000+0  00000-0 0  9993
2 10007 100.0000  12.0000 0000000   0.0000 282.0000 15.18623435    15
CTC2_L_00096003-01
1 10008U 22014IT  26075.70041667  .00000000  00000+0  00000-0 0  9998
2 10008 100.0000  24.0000 0000000   0.0000  24.0000 15.18623435    13
CTC2_L_00096003-02
1 10009U 22278WA  26075.70041667  .00000000  00000+0  00000-0 0  9991
2 10009 100.0000  24.0000 0000000   0.0000 114.0000 15.18623435    14
CTC2_L_00096003-03
1 10010U 26937UZ  26075.70041667  .00000000  00000+0  00000-0 0  9999
2 10010 100.0000  24.0000 0000000   0.0000 204.0000 15.18623435    16
CTC2_L_00096003-04
1 10011U 23203MR  26075.70041667  .00000000  00000+0  00000-0 0  9993
2 10011 100.0000  24.0000 0000000   0.0000 294.0000 15.18623435    16
CTC2_L_00096004-01
1 10012U 23235B   26075.70041667  .00000000  00000+0  00000-0 0  9999
2 10012 100.0000  36.0000 0000000   0.0000  36.0000 15.18623435    14
CTC2_L_00096004-02
1 10013U 25552OX  26075.70041667  .00000000  00000+0  00000-0 0  9994
2 10013 100.0000  36.0000 0000000   0.0000 126.0000 15.18623435    15
CTC2_L_00096004-03
1 10014U 23575FU  26075.70041667  .00000000  00000+0  00000-0 0  9998
2 10014 100.0000  36.0000 0000000   0.0000 216.0000 15.18623435    16
CTC2_L_00096004-04
1 10015U 26694LH  26075.70041667  .00000000  00000+0  00000-0 0  9994
2 10015 100.0000  36.0000 0000000   0.0000 306.0000 15.18623435    17
CTC2_L_00096005-01
1 10016U 23963UZ  26075.70041667  .00000000  00000+0  00000-0 0  9991
2 10016 100.0000  48.0000 0000000   0.0000  48.0000 15.18623435    14
CTC2_L_00096005-02
1 10017U 26247NR  26075.70041667  .00000000  00000+0  00000-0 0  9990
2 10017 100.0000  48.0000 0000000   0.0000 138.0000 15.18623435    15
CTC2_L_00096005-03
1 10018U 25901OJ  26075.70041667  .00000000  00000+0  00000-0 0  9997
2 10018 100.0000  48.0000 0000000   0.0000 228.0000 15.18623435    16
CTC2_L_00096005-04
1 10019U 25906JZ  26075.70041667  .00000000  00000+0  00000-0 0  9993
2 10019 100.0000  48.0000 0000000   0.0000 318.0000 15.18623435    17
CTC2_L_00096006-01
1 10020U 24769GY  26075.70041667  .00000000  00000+0  00000-0 0  9991
2 10020 100.0000  60.0000 0000000   0.0000  60.0000 15.18623435    17
CTC2_L_00096006-02
1 10021U 25841GM  26075.70041667  .00000000  00000+0  00000-0 0  9994
2 10021 100.0000  60.0000 0000000   0.0000 150.0000 15.18623435    18
CTC2_L_00096006-03
1 10022U 26194SU  26075.70041667  .00000000  00000+0  00000-0 0  9997
2 10022 100.0000  60.0000 0000000   0.0000 240.0000 15.18623435    19
CTC2_L_00096006-04
1 10023U 24443NJ  26075.70041667  .00000000  00000+0  00000-0 0  9993
2 10023 100.0000  60.0000 0000000   0.0000 330.0000 15.18623435    10
CTC2_L_00096007-01
1 10024U 25076MW  26075.70041667  .00000000  00000+0  00000-0 0  9997
2 10024 100.0000  72.0000 0000000   0.0000  72.0000 15.18623435    17
CTC2_L_00096007-02
1 10025U 23534SM  26075.70041667  .00000000  00000+0  00000-0 0  9995
2 10025 100.0000  72.0000 0000000   0.0000 162.0000 15.18623435    18
CTC2_L_00096007-03
1 10026U 24966FM  26075.70041667  .00000000  00000+0  00000-0 0  9996
2 10026 100.0000  72.0000 0000000   0.0000 252.0000 15.18623435    19
CTC2_L_00096007-04
1 10027U 26687SH  26075.70041667  .00000000  00000+0  00000-0 0  9999
2 10027 100.0000  72.0000 0000000   0.0000 342.0000 15.18623435    10
CTC2_L_00096008-01
1 10028U 25291DN  26075.70041667  .00000000  00000+0  00000-0 0  9990
2 10028 100.0000  84.0000 0000000   0.0000  84.0000 15.18623435    17
CTC2_L_00096008-02
1 10029U 22616LS  26075.70041667  .00000000  00000+0  00000-0 0  9999
2 10029 100.0000  84.0000 0000000   0.0000 174.0000 15.18623435    18
CTC2_L_00096008-03
1 10030U 25150TZ  26075.70041667  .00000000  00000+0  00000-0 0  9997
2 10030 100.0000  84.0000 0000000   0.0000 264.0000 15.18623435    10
CTC2_L_00096008-04
1 10031U 26423QY  26075.70041667  .00000000  00000+0  00000-0 0  9992
2 10031 100.0000  84.0000 0000000   0.0000 354.0000 15.18623435    11
CTC2_L_00096009-01
1 10032U 22435NF  26075.70041667  .00000000  00000+0  00000-0 0  9992
2 10032 100.0000  96.0000 0000000   0.0000  96.0000 15.18623435    18
CTC2_L_00096009-02
1 10033U 23454PW  26075.70041667  .00000000  00000+0  00000-0 0  9995
2 10033 100.0000  96.0000 0000000   0.0000 186.0000 15.18623435    19
CTC2_L_00096009-03
1 10034U 24413V   26075.70041667  .00000000  00000+0  00000-0 0  9992
2 10034 100.0000  96.0000 0000000   0.0000 276.0000 15.18623435    10
CTC2_L_00096009-04
1 10035U 22851SG  26075.70041667  .00000000  00000+0  00000-0 0  9997
2 10035 100.0000  96.0000 0000000   0.0000   6.0000 15.18623435    12
CTC2_L_00096010-01
1 10036U 23300KV  26075.70041667  .00000000  00000+0  00000-0 0  9998
2 10036 100.0000 108.0000 0000000   0.0000 108.0000 15.18623435    10
CTC2_L_00096010-02
1 10037U 25151KK  26075.70041667  .00000000  00000+0  00000-0 0  9995
2 10037 100.0000 108.0000 0000000   0.0000 198.0000 15.18623435    10
CTC2_L_00096010-03
1 10038U 22008GC  26075.70041667  .00000000  00000+0  00000-0 0  9994
2 10038 100.0000 108.0000 0000000   0.0000 288.0000 15.18623435    11
CTC2_L_00096010-04
1 10039U 23127PT  26075.70041667  .00000000  00000+0  00000-0 0  9998
2 10039 100.0000 108.0000 0000000   0.0000  18.0000 15.18623435    13
CTC2_L_00096011-01
1 10040U 26785UC  26075.70041667  .00000000  00000+0  00000-0 0  9993
2 10040 100.0000 120.0000 0000000   0.0000 120.0000 15.18623435    13
CTC2_L_00096011-02
1 10041U 25334BC  26075.70041667  .00000000  00000+0  00000-0 0  9993
2 10041 100.0000 120.0000 0000000   0.0000 210.0000 15.18623435    14
CTC2_L_00096011-03
1 10042U 26340TM  26075.70041667  .00000000  00000+0  00000-0 0  9992
2 10042 100.0000 120.0000 0000000   0.0000 300.0000 15.18623435    15
CTC2_L_00096011-04
1 10043U 24410EB  26075.70041667  .00000000  00000+0  00000-0 0  9999
2 10043 100.0000 120.0000 0000000   0.0000  30.0000 15.18623435    16
CTC2_L_00096012-01
1 10044U 24586QQ  26075.70041667  .00000000  00000+0  00000-0 0  9994
2 10044 100.0000 132.0000 0000000   0.0000 132.0000 15.18623435    13
CTC2_L_00096012-02
1 10045U 26152KS  26075.70041667  .00000000  00000+0  00000-0 0  9996
2 10045 100.0000 132.0000 0000000   0.0000 222.0000 15.18623435    14
CTC2_L_00096012-03
1 10046U 22833IZ  26075.70041667  .00000000  00000+0  00000-0 0  9999
2 10046 100.0000 132.0000 0000000   0.0000 312.0000 15.18623435    15
CTC2_L_00096012-04
1 10047U 25442KY  26075.70041667  .00000000  00000+0  00000-0 0  9999
2 10047 100.0000 132.0000 0000000   0.0000  42.0000 15.18623435    16
CTC2_L_00096013-01
1 10048U 24081JV  26075.70041667  .00000000  00000+0  00000-0 0  9998
2 10048 100.0000 144.0000 0000000   0.0000 144.0000 15.18623435    13
CTC2_L_00096013-02
1 10049U 25050AO  26075.70041667  .00000000  00000+0  00000-0 0  9996
2 10049 100.0000 144.0000 0000000   0.0000 234.0000 15.18623435    14
CTC2_L_00096013-03
1 10050U 22299FZ  26075.70041667  .00000000  00000+0  00000-0 0  9990
2 10050 100.0000 144.0000 0000000   0.0000 324.0000 15.18623435    16
CTC2_L_00096013-04
1 10051U 24124MR  26075.70041667  .00000000  00000+0  00000-0 0  9990
2 10051 100.0000 144.0000 0000000   0.0000  54.0000 15.18623435    17
CTC2_L_00096014-01
1 10052U 24810TC  26075.70041667  .00000000  00000+0  00000-0 0  9993
2 10052 100.0000 156.0000 0000000   0.0000 156.0000 15.18623435    14
CTC2_L_00096014-02
1 10053U 24513VS  26075.70041667  .00000000  00000+0  00000-0 0  9994
2 10053 100.0000 156.0000 0000000   0.0000 246.0000 15.18623435    15
CTC2_L_00096014-03
1 10054U 23163QL  26075.70041667  .00000000  00000+0  00000-0 0  9995
2 10054 100.0000 156.0000 0000000   0.0000 336.0000 15.18623435    16
CTC2_L_00096014-04
1 10055U 26712QT  26075.70041667  .00000000  00000+0  00000-0 0  9999
2 10055 100.0000 156.0000 0000000   0.0000  66.0000 15.18623435    17
CTC2_L_00096015-01
1 10056U 26973VQ  26075.70041667  .00000000  00000+0  00000-0 0  9999
2 10056 100.0000 168.0000 0000000   0.0000 168.0000 15.18623435    14
CTC2_L_00096015-02
1 10057U 24786LX  26075.70041667  .00000000  00000+0  00000-0 0  9990
2 10057 100.0000 168.0000 0000000   0.0000 258.0000 15.18623435    15
CTC2_L_00096015-03
1 10058U 22080ND  26075.70041667  .00000000  00000+0  00000-0 0  9996
2 10058 100.0000 168.0000 0000000   0.0000 348.0000 15.18623435    16
CTC2_L_00096015-04
1 10059U 23993GI  26075.70041667  .00000000  00000+0  00000-0 0  9991
2 10059 100.0000 168.0000 0000000   0.0000  78.0000 15.18623435    17
CTC2_L_00096016-01
1 10060U 24038YS  26075.70041667  .00000000  00000+0  00000-0 0  9994
2 10060 100.0000 180.0000 0000000   0.0000 180.0000 15.18623435    17
CTC2_L_00096016-02
1 10061U 24247QT  26075.70041667  .00000000  00000+0  00000-0 0  9997
2 10061 100.0000 180.0000 0000000   0.0000 270.0000 15.18623435    18
